IXPE                    
1 49954U 21121A   24190.91667824  .00006746  00000+0  48183-3 0  9996
2 49954   0.2292 232.4783 0009562 243.4968 326.3106 14.98465608  5798
